{"type": "FeatureCollection", "features": [ {"type": "Feature", "properties": {"norad_id": 34529, "name": "IRIDIUM 33 DEB", "group": "iridium-33-debris", "lat": 20.21996512979503, "lon": 37.30208581424684, "alt_km": 759.6764769548217, "timestamp": "2025-12-11T10:53:16.274124+00:00", "meta": {"OBJECT_NAME": "IRIDIUM 33 DEB", "OBJECT_ID": "1997-051HW", "EPOCH": "2025-12-11T04:07:33.337632", "MEAN_MOTION": 14.40613819, "ECCENTRICITY": 0.000461, "INCLINATION": 86.3642, "RA_OF_ASC_NODE": 36.0802, "ARG_OF_PERICENTER": 181.7782, "MEAN_ANOMALY": 178.3402, "EPHEMERIS_TYPE": 0, "CLASSIFICATION_TYPE": "U", "NORAD_CAT_ID": 34529, "ELEMENT_SET_NO": 999, "REV_AT_EPOCH": 88119, "BSTAR": 0.00016815, "MEAN_MOTION_DOT": 5.56e-06, "MEAN_MOTION_DDOT": 0}, "tle": {"line1": "1 34529U 97051HW  25345.17191363  .00000556  00000+0  16815-3 0  9994", "line2": "2 34529  86.3642  36.0802 0004610 181.7782 178.3402 14.40613819881197"}}, "geometry": {"type": "Point", "coordinates": [37.30208581424684, 20.21996512979503]}}, {"type": "Feature", "properties": {"norad_id": 34538, "name": "IRIDIUM 33 DEB", "group": "iridium-33-debris", "lat": -27.827703780165308, "lon": -171.91125234137508, "alt_km": 769.0544992938931, "timestamp": "2025-12-11T10:53:16.274135+00:00", "meta": {"OBJECT_NAME": "IRIDIUM 33 DEB", "OBJECT_ID": "1997-051JF", "EPOCH": "2025-12-10T12:59:24.609120", "MEAN_MOTION": 14.42626981, "ECCENTRICITY": 0.0033054, "INCLINATION": 86.2772, "RA_OF_ASC_NODE": 6.5186, "ARG_OF_PERICENTER": 335.5091, "MEAN_ANOMALY": 177.0552, "EPHEMERIS_TYPE": 0, "CLASSIFICATION_TYPE": "U", "NORAD_CAT_ID": 34538, "ELEMENT_SET_NO": 999, "REV_AT_EPOCH": 87724, "BSTAR": 0.0013644, "MEAN_MOTION_DOT": 4.581e-05, "MEAN_MOTION_DDOT": 0}, "tle": {"line1": "1 34538U 97051JF  25344.54125705  .00004581  00000+0  13644-2 0  9999", "line2": "2 34538  86.2772   6.5186 0033054 335.5091 177.0552 14.42626981877242"}}, "geometry": {"type": "Point", "coordinates": [-171.91125234137508, -27.827703780165308]}}, {"type": "Feature", "properties": {"norad_id": 34540, "name": "IRIDIUM 33 DEB", "group": "iridium-33-debris", "lat": 64.6152009256087, "lon": 120.37944384922535, "alt_km": 630.5810816696521, "timestamp": "2025-12-11T10:53:16.274146+00:00", "meta": {"OBJECT_NAME": "IRIDIUM 33 DEB", "OBJECT_ID": "1997-051JH", "EPOCH": "2025-12-11T03:55:52.274208", "MEAN_MOTION": 14.7526328, "ECCENTRICITY": 0.0016145, "INCLINATION": 86.3106, "RA_OF_ASC_NODE": 308.3273, "ARG_OF_PERICENTER": 164.7687, "MEAN_ANOMALY": 212.0228, "EPHEMERIS_TYPE": 0, "CLASSIFICATION_TYPE": "U", "NORAD_CAT_ID": 34540, "ELEMENT_SET_NO": 999, "REV_AT_EPOCH": 88998, "BSTAR": 0.0024697, "MEAN_MOTION_DOT": 0.00016792, "MEAN_MOTION_DDOT": 0}, "tle": {"line1": "1 34540U 97051JH  25345.16379947  .00016792  00000+0  24697-2 0  9997", "line2": "2 34540  86.3106 308.3273 0016145 164.7687 212.0228 14.75263280889981"}}, "geometry": {"type": "Point", "coordinates": [120.37944384922535, 64.6152009256087]}}, {"type": "Feature", "properties": {"norad_id": 34648, "name": "IRIDIUM 33 DEB", "group": "iridium-33-debris", "lat": -15.17817180816235, "lon": 103.44688513606569, "alt_km": 897.5197391178626, "timestamp": "2025-12-11T10:53:16.274156+00:00", "meta": {"OBJECT_NAME": "IRIDIUM 33 DEB", "OBJECT_ID": "1997-051JZ", "EPOCH": "2025-12-10T13:31:51.923424", "MEAN_MOTION": 14.11387502, "ECCENTRICITY": 0.0183418, "INCLINATION": 86.3907, "RA_OF_ASC_NODE": 282.8249, "ARG_OF_PERICENTER": 305.6711, "MEAN_ANOMALY": 52.7515, "EPHEMERIS_TYPE": 0, "CLASSIFICATION_TYPE": "U", "NORAD_CAT_ID": 34648, "ELEMENT_SET_NO": 999, "REV_AT_EPOCH": 84930, "BSTAR": 0.012723, "MEAN_MOTION_DOT": 0.00027053, "MEAN_MOTION_DDOT": 0}, "tle": {"line1": "1 34648U 97051JZ  25344.56379541  .00027053  00000+0  12723-1 0  9997", "line2": "2 34648  86.3907 282.8249 0183418 305.6711  52.7515 14.11387502849304"}}, "geometry": {"type": "Point", "coordinates": [103.44688513606569, -15.17817180816235]}}, {"type": "Feature", "properties": {"norad_id": 34651, "name": "IRIDIUM 33 DEB", "group": "iridium-33-debris", "lat": -8.096689094366864, "lon": -38.34581012256849, "alt_km": 713.8172716853533, "timestamp": "2025-12-11T10:53:16.274166+00:00", "meta": {"OBJECT_NAME": "IRIDIUM 33 DEB", "OBJECT_ID": "1997-051KC", "EPOCH": "2025-12-10T20:31:39.361152", "MEAN_MOTION": 14.25764503, "ECCENTRICITY": 0.0142095, "INCLINATION": 86.2836, "RA_OF_ASC_NODE": 141.3789, "ARG_OF_PERICENTER": 209.9439, "MEAN_ANOMALY": 149.3571, "EPHEMERIS_TYPE": 0, "CLASSIFICATION_TYPE": "U", "NORAD_CAT_ID": 34651, "ELEMENT_SET_NO": 999, "REV_AT_EPOCH": 85869, "BSTAR": 0.0051973, "MEAN_MOTION_DOT": 0.00013755, "MEAN_MOTION_DDOT": 0}, "tle": {"line1": "1 34651U 97051KC  25344.85531668  .00013755  00000+0  51973-2 0  9998", "line2": "2 34651  86.2836 141.3789 0142095 209.9439 149.3571 14.25764503858697"}}, "geometry": {"type": "Point", "coordinates": [-38.34581012256849, -8.096689094366864]}}, {"type": "Feature", "properties": {"norad_id": 34652, "name": "IRIDIUM 33 DEB", "group": "iridium-33-debris", "lat": 71.92575811605664, "lon": -8.087801870098573, "alt_km": 691.3675651766252, "timestamp": "2025-12-11T10:53:16.274177+00:00", "meta": {"OBJECT_NAME": "IRIDIUM 33 DEB", "OBJECT_ID": "1997-051KD", "EPOCH": "2025-12-09T11:37:22.959264", "MEAN_MOTION": 14.62008914, "ECCENTRICITY": 0.00262076, "INCLINATION": 86.3314, "RA_OF_ASC_NODE": 341.4507, "ARG_OF_PERICENTER": 310.1115, "MEAN_ANOMALY": 203.3524, "EPHEMERIS_TYPE": 0, "CLASSIFICATION_TYPE": "U", "NORAD_CAT_ID": 34652, "ELEMENT_SET_NO": 999, "REV_AT_EPOCH": 88436, "BSTAR": 0.0015009226, "MEAN_MOTION_DOT": 7.584e-05, "MEAN_MOTION_DDOT": 0}, "tle": {"line1": "1 34652U 97051KD  25343.48429351  .00007584  00000+0  15009-2 0  9995", "line2": "2 34652  86.3314 341.4507 0026207 310.1115 203.3524 14.62008914884363"}}, "geometry": {"type": "Point", "coordinates": [-8.087801870098573, 71.92575811605664]}}, {"type": "Feature", "properties": {"norad_id": 34690, "name": "IRIDIUM 33 DEB", "group": "iridium-33-debris", "lat": -33.03850854686328, "lon": 35.18922830859117, "alt_km": 712.1697418770173, "timestamp": "2025-12-11T10:53:16.274188+00:00", "meta": {"OBJECT_NAME": "IRIDIUM 33 DEB", "OBJECT_ID": "1997-051KM", "EPOCH": "2025-12-11T02:55:05.414016", "MEAN_MOTION": 14.5508579, "ECCENTRICITY": 0.0011042, "INCLINATION": 86.378, "RA_OF_ASC_NODE": 37.6945, "ARG_OF_PERICENTER": 34.4543, "MEAN_ANOMALY": 354.2887, "EPHEMERIS_TYPE": 0, "CLASSIFICATION_TYPE": "U", "NORAD_CAT_ID": 34690, "ELEMENT_SET_NO": 999, "REV_AT_EPOCH": 88071, "BSTAR": 0.00065169, "MEAN_MOTION_DOT": 2.833e-05, "MEAN_MOTION_DDOT": 0}, "tle": {"line1": "1 34690U 97051KM  25345.12159044  .00002833  00000+0  65169-3 0  9994", "line2": "2 34690  86.3780  37.6945 0011042  34.4543 354.2887 14.55085790880716"}}, "geometry": {"type": "Point", "coordinates": [35.18922830859117, -33.03850854686328]}}, {"type": "Feature", "properties": {"norad_id": 34693, "name": "IRIDIUM 33 DEB", "group": "iridium-33-debris", "lat": 39.34336308309727, "lon": -52.49943643690956, "alt_km": 471.0697671949183, "timestamp": "2025-12-11T10:53:16.274198+00:00", "meta": {"OBJECT_NAME": "IRIDIUM 33 DEB", "OBJECT_ID": "1997-051KQ", "EPOCH": "2025-12-10T08:38:30.910272", "MEAN_MOTION": 15.27015384, "ECCENTRICITY": 0.00144202, "INCLINATION": 86.3054, "RA_OF_ASC_NODE": 305.0067, "ARG_OF_PERICENTER": 56.9182, "MEAN_ANOMALY": 94.3145, "EPHEMERIS_TYPE": 0, "CLASSIFICATION_TYPE": "U", "NORAD_CAT_ID": 34693, "ELEMENT_SET_NO": 999, "REV_AT_EPOCH": 88878, "BSTAR": 0.0067186448, "MEAN_MOTION_DOT": 0.00182624, "MEAN_MOTION_DDOT": 0}, "tle": {"line1": "1 34693U 97051KQ  25344.36007998  .00182624  00000+0  67186-2 0  9999", "line2": "2 34693  86.3054 305.0067 0014420  56.9182  94.3145 15.27015384888787"}}, "geometry": {"type": "Point", "coordinates": [-52.49943643690956, 39.34336308309727]}}, {"type": "Feature", "properties": {"norad_id": 34696, "name": "IRIDIUM 33 DEB", "group": "iridium-33-debris", "lat": 58.42222591322298, "lon": 34.3525957207185, "alt_km": 691.8275838370982, "timestamp": "2025-12-11T10:53:16.274209+00:00", "meta": {"OBJECT_NAME": "IRIDIUM 33 DEB", "OBJECT_ID": "1997-051KT", "EPOCH": "2025-12-11T02:33:26.981856", "MEAN_MOTION": 14.64953116, "ECCENTRICITY": 0.0074148, "INCLINATION": 86.185, "RA_OF_ASC_NODE": 28.2818, "ARG_OF_PERICENTER": 173.0229, "MEAN_ANOMALY": 217.0787, "EPHEMERIS_TYPE": 0, "CLASSIFICATION_TYPE": "U", "NORAD_CAT_ID": 34696, "ELEMENT_SET_NO": 999, "REV_AT_EPOCH": 86649, "BSTAR": 0.0075397, "MEAN_MOTION_DOT": 0.00042238, "MEAN_MOTION_DDOT": 0}, "tle": {"line1": "1 34696U 97051KT  25345.10656229  .00042238  00000+0  75397-2 0  9991", "line2": "2 34696  86.1850  28.2818 0074148 173.0229 217.0787 14.64953116866490"}}, "geometry": {"type": "Point", "coordinates": [34.3525957207185, 58.42222591322298]}}, {"type": "Feature", "properties": {"norad_id": 34765, "name": "IRIDIUM 33 DEB", "group": "iridium-33-debris", "lat": 63.09157433993135, "lon": 40.559934822318006, "alt_km": 760.5861854443583, "timestamp": "2025-12-11T10:53:16.274219+00:00", "meta": {"OBJECT_NAME": "IRIDIUM 33 DEB", "OBJECT_ID": "1997-051LJ", "EPOCH": "2025-12-11T02:23:38.251392", "MEAN_MOTION": 14.40458426, "ECCENTRICITY": 0.0015267, "INCLINATION": 86.3395, "RA_OF_ASC_NODE": 33.4653, "ARG_OF_PERICENTER": 217.1303, "MEAN_ANOMALY": 172.2223, "EPHEMERIS_TYPE": 0, "CLASSIFICATION_TYPE": "U", "NORAD_CAT_ID": 34765, "ELEMENT_SET_NO": 999, "REV_AT_EPOCH": 87590, "BSTAR": 0.00060872, "MEAN_MOTION_DOT": 1.956e-05, "MEAN_MOTION_DDOT": 0}, "tle": {"line1": "1 34765U 97051LJ  25345.09974828  .00001956  00000+0  60872-3 0  9999", "line2": "2 34765  86.3395  33.4653 0015267 217.1303 172.2223 14.40458426875909"}}, "geometry": {"type": "Point", "coordinates": [40.559934822318006, 63.09157433993135]}}]}